{
  "40258": [
    {
      "epoch": "2026-04-02T20:04:48.631897+00:00",
      "mean_motion": 0.9910989499999999,
      "eccentricity": 0.0001929,
      "inclination": 1.6988,
      "raan": 83.621,
      "arg_perigee": 231.74520000000004,
      "mean_anomaly": 253.90309999999997,
      "bstar": 0.0,
      "tle_line1": "1 40258U 14058A   26092.83667398  .00000049  00000-0  00000+0 0  9998",
      "tle_line2": "2 40258   1.6988  83.6210 0001929 231.7452 253.9031  0.99109895 40229",
      "norad_id": 40258,
      "object_name": "LUCH (OLYMP)"
    },
    {
      "epoch": "2026-04-03T11:28:10.161682+00:00",
      "mean_motion": 0.99109968,
      "eccentricity": 0.0001873,
      "inclination": 1.7004,
      "raan": 83.6122,
      "arg_perigee": 232.9423,
      "mean_anomaly": 121.5043,
      "bstar": 0.0,
      "tle_line1": "1 40258U 14058A   26093.47789539  .00000062  00000-0  00000+0 0  9996",
      "tle_line2": "2 40258   1.7004  83.6122 0001873 232.9423 121.5043  0.99109968 40224",
      "norad_id": 40258,
      "object_name": "LUCH (OLYMP)"
    },
    {
      "epoch": "2026-04-03T20:01:05.842560+00:00",
      "mean_motion": 0.99109988,
      "eccentricity": 0.0001859,
      "inclination": 1.7012,
      "raan": 83.6079,
      "arg_perigee": 233.57010000000002,
      "mean_anomaly": 247.97420000000002,
      "bstar": 0.0,
      "tle_line1": "1 40258U 14058A   26093.83409540  .00000068  00000-0  00000+0 0  9993",
      "tle_line2": "2 40258   1.7012  83.6079 0001859 233.5701 247.9742  0.99109988 40236",
      "norad_id": 40258,
      "object_name": "LUCH (OLYMP)"
    },
    {
      "epoch": "2026-04-04T19:57:29.942780+00:00",
      "mean_motion": 0.99110152,
      "eccentricity": 0.000179,
      "inclination": 1.7036,
      "raan": 83.5945,
      "arg_perigee": 235.2801,
      "mean_anomaly": 242.18930000000003,
      "bstar": 0.0,
      "tle_line1": "1 40258U 14058A   26094.83159656  .00000082  00000-0  00000+0 0  9990",
      "tle_line2": "2 40258   1.7036  83.5945 0001790 235.2801 242.1893  0.99110152 40247",
      "norad_id": 40258,
      "object_name": "LUCH (OLYMP)"
    },
    {
      "epoch": "2026-04-05T03:28:38.565125+00:00",
      "mean_motion": 0.9911021600000001,
      "eccentricity": 0.0001778,
      "inclination": 1.7044,
      "raan": 83.5898,
      "arg_perigee": 235.63510000000002,
      "mean_anomaly": 353.6237,
      "bstar": 0.0,
      "tle_line1": "1 40258U 14058A   26095.14489080  .00000085  00000-0  00000+0 0  9995",
      "tle_line2": "2 40258   1.7044  83.5898 0001778 235.6351 353.6237  0.99110216 40244",
      "norad_id": 40258,
      "object_name": "LUCH (OLYMP)"
    },
    {
      "epoch": "2026-04-05T18:11:12.401947+00:00",
      "mean_motion": 0.99110345,
      "eccentricity": 0.0001733,
      "inclination": 1.7058,
      "raan": 83.5817,
      "arg_perigee": 236.48720000000003,
      "mean_anomaly": 211.4617,
      "bstar": 0.0,
      "tle_line1": "1 40258U 14058A   26095.75778243  .00000090  00000-0  00000+0 0  9990",
      "tle_line2": "2 40258   1.7058  83.5817 0001733 236.4872 211.4617  0.99110345 40255",
      "norad_id": 40258,
      "object_name": "LUCH (OLYMP)"
    },
    {
      "epoch": "2026-04-07T02:40:33.137756+00:00",
      "mean_motion": 0.99110715,
      "eccentricity": 0.000167,
      "inclination": 1.7091,
      "raan": 83.562,
      "arg_perigee": 237.9479,
      "mean_anomaly": 333.032,
      "bstar": 0.0,
      "tle_line1": "1 40258U 14058A   26097.11149465  .00000095  00000-0  00000+0 0  9995",
      "tle_line2": "2 40258   1.7091  83.5620 0001670 237.9479 333.0320  0.99110715 40267",
      "norad_id": 40258,
      "object_name": "LUCH (OLYMP)"
    },
    {
      "epoch": "2026-04-07T19:46:27.864777+00:00",
      "mean_motion": 0.99110928,
      "eccentricity": 0.0001631,
      "inclination": 1.7108,
      "raan": 83.5523,
      "arg_perigee": 238.302,
      "mean_anomaly": 226.8899,
      "bstar": 0.0,
      "tle_line1": "1 40258U 14058A   26097.82393362  .00000094  00000-0  00000+0 0  9999",
      "tle_line2": "2 40258   1.7108  83.5523 0001631 238.3020 226.8899  0.99110928 40279",
      "norad_id": 40258,
      "object_name": "LUCH (OLYMP)"
    },
    {
      "epoch": "2026-04-08T04:19:25.873230+00:00",
      "mean_motion": 0.9911105500000001,
      "eccentricity": 0.0001627,
      "inclination": 1.7116,
      "raan": 83.5464,
      "arg_perigee": 238.497,
      "mean_anomaly": 353.8051,
      "bstar": 0.0,
      "tle_line1": "1 40258U 14058A   26098.18016057  .00000093  00000-0  00000+0 0  9991",
      "tle_line2": "2 40258   1.7116  83.5464 0001627 238.4970 353.8051  0.99111055 40275",
      "norad_id": 40258,
      "object_name": "LUCH (OLYMP)"
    },
    {
      "epoch": "2026-04-09T03:28:38.743134+00:00",
      "mean_motion": 0.9911138300000001,
      "eccentricity": 0.0001591,
      "inclination": 1.7140000000000002,
      "raan": 83.5336,
      "arg_perigee": 238.63290000000003,
      "mean_anomaly": 337.9055,
      "bstar": 0.0,
      "tle_line1": "1 40258U 14058A   26099.14489286  .00000086  00000-0  00000+0 0  9998",
      "tle_line2": "2 40258   1.7140  83.5336 0001591 238.6329 337.9055  0.99111383 40282",
      "norad_id": 40258,
      "object_name": "LUCH (OLYMP)"
    },
    {
      "epoch": "2026-04-09T17:56:38.870300+00:00",
      "mean_motion": 0.9911159900000001,
      "eccentricity": 0.0001569,
      "inclination": 1.7155,
      "raan": 83.5255,
      "arg_perigee": 238.47049999999996,
      "mean_anomaly": 193.15260000000004,
      "bstar": 0.0,
      "tle_line1": "1 40258U 14058A   26099.74767211  .00000081  00000-0  00000+0 0  9996",
      "tle_line2": "2 40258   1.7155  83.5255 0001569 238.4705 193.1526  0.99111599 40294",
      "norad_id": 40258,
      "object_name": "LUCH (OLYMP)"
    },
    {
      "epoch": "2026-04-10T04:12:08.949310+00:00",
      "mean_motion": 0.9911175100000001,
      "eccentricity": 0.0001563,
      "inclination": 1.7166,
      "raan": 83.5197,
      "arg_perigee": 238.3108,
      "mean_anomaly": 345.8296,
      "bstar": 0.0,
      "tle_line1": "1 40258U 14058A   26100.17510358  .00000076  00000-0  00000+0 0  9998",
      "tle_line2": "2 40258   1.7166  83.5197 0001563 238.3108 345.8296  0.99111751 40291",
      "norad_id": 40258,
      "object_name": "LUCH (OLYMP)"
    },
    {
      "epoch": "2026-04-10T11:02:28.053040+00:00",
      "mean_motion": 0.99111858,
      "eccentricity": 0.0001555,
      "inclination": 1.7173,
      "raan": 83.5156,
      "arg_perigee": 238.4689,
      "mean_anomaly": 87.346,
      "bstar": 0.0,
      "tle_line1": "1 40258U 14058A   26100.46004691  .00000072  00000-0  00000+0 0  9994",
      "tle_line2": "2 40258   1.7173  83.5156 0001555 238.4689  87.3460  0.99111858 40299",
      "norad_id": 40258,
      "object_name": "LUCH (OLYMP)"
    },
    {
      "epoch": "2026-04-11T02:41:38.686005+00:00",
      "mean_motion": 0.99112074,
      "eccentricity": 0.0001541,
      "inclination": 1.7189,
      "raan": 83.5068,
      "arg_perigee": 237.5795,
      "mean_anomaly": 320.9579,
      "bstar": 0.0,
      "tle_line1": "1 40258U 14058A   26101.11225331  .00000063  00000-0  00000+0 0  9993",
      "tle_line2": "2 40258   1.7189  83.5068 0001541 237.5795 320.9579  0.99112074 40301",
      "norad_id": 40258,
      "object_name": "LUCH (OLYMP)"
    },
    {
      "epoch": "2026-04-11T10:58:48.147736+00:00",
      "mean_motion": 0.99112209,
      "eccentricity": 0.0001538,
      "inclination": 1.7197,
      "raan": 83.5021,
      "arg_perigee": 237.6455,
      "mean_anomaly": 84.085,
      "bstar": 0.0,
      "tle_line1": "1 40258U 14058A   26101.45750171  .00000058  00000-0  00000+0 0  9999",
      "tle_line2": "2 40258   1.7197  83.5021 0001538 237.6455  84.0850  0.99112209 40309",
      "norad_id": 40258,
      "object_name": "LUCH (OLYMP)"
    },
    {
      "epoch": "2026-04-11T19:31:37.649292+00:00",
      "mean_motion": 0.9911232399999998,
      "eccentricity": 0.0001532,
      "inclination": 1.7207,
      "raan": 83.4972,
      "arg_perigee": 237.0571,
      "mean_anomaly": 211.7488,
      "bstar": 0.0,
      "tle_line1": "1 40258U 14058A   26101.81363020  .00000053  00000-0  00000+0 0  9997",
      "tle_line2": "2 40258   1.7207  83.4972 0001532 237.0571 211.7488  0.99112324 40317",
      "norad_id": 40258,
      "object_name": "LUCH (OLYMP)"
    }
  ],
  "44878": []
}